{
  "59391": {
    "noradId": "59391",
    "tle": [
      "1 59391C 24062T   25284.08590278  .00003566  00000+0  12018-3 0  2842",
      "2 59391  53.1593 233.1887 0001300  88.9820 118.2216 15.30185246    13"
    ]
  },
  "59392": {
    "noradId": "59392",
    "tle": [
      "1 59392C 24062U   25284.08173611  .00002678  00000+0  90282-4 0  2844",
      "2 59392  53.1596 230.4487 0001236  96.8896  44.3692 15.30181315    12"
    ]
  },
  "59393": {
    "noradId": "59393",
    "tle": [
      "1 59393C 24062V   25284.09840278  .00054305  00000+0  17209-2 0  2846",
      "2 59393  53.1586 217.7692 0002120 102.9688 305.7926 15.32115419    17"
    ]
  },
  "59394": {
    "noradId": "59394",
    "tle": [
      "1 59394C 24062W   25284.08312500 -.00024578  00000+0 -82826-3 0  2847",
      "2 59394  53.1586 230.5110 0001326  87.3254  26.6548 15.30220452    19"
    ]
  },
  "59397": {
    "noradId": "59397",
    "tle": [
      "1 59397C 24062X   25284.08312500 -.00003978  00000+0 -13410-3 0  2844",
      "2 59397  53.1575 230.8307 0001262  86.5586 224.5945 15.30189886    14"
    ]
  },
  "59398": {
    "noradId": "59398",
    "tle": [
      "1 59398C 24064A   25284.08312500  .00013867  00000+0  50254-3 0  2840",
      "2 59398  43.0018 180.7059 0001856 278.2994 301.4949 15.27545208    13"
    ]
  },
  "59399": {
    "noradId": "59399",
    "tle": [
      "1 59399C 24064B   25284.08451389  .00015382  00000+0  55719-3 0  2845",
      "2 59399  43.0008 181.3741 0001272 262.6326  41.7914 15.27559857    17"
    ]
  },
  "59400": {
    "noradId": "59400",
    "tle": [
      "1 59400C 24064C   25284.08381944  .00016406  00000+0  59446-3 0  2846",
      "2 59400  43.0009 180.8510 0001785 285.7113 234.2124 15.27549128    10"
    ]
  },
  "59401": {
    "noradId": "59401",
    "tle": [
      "1 59401C 24064D   25284.08590278  .00017610  00000+0  63818-3 0  2845",
      "2 59401  42.9994 180.9152 0001620 277.8623 218.1858 15.27542075    10"
    ]
  },
  "59402": {
    "noradId": "59402",
    "tle": [
      "1 59402C 24064E   25284.07965278  .00005915  00000+0  21429-3 0  2848",
      "2 59402  43.0010 181.2963 0001464 280.9879  39.1192 15.27565253    15"
    ]
  },
  "59403": {
    "noradId": "59403",
    "tle": [
      "1 59403C 24064F   25284.08312500  .00004620  00000+0  16741-3 0  2847",
      "2 59403  42.9989 181.0843 0001811 274.9666 142.1069 15.27557321    12"
    ]
  },
  "59404": {
    "noradId": "59404",
    "tle": [
      "1 59404C 24064G   25284.08798611  .00014443  00000+0  52321-3 0  2847",
      "2 59404  43.0001 129.9764 0001509 261.1405 296.1351 15.27558076    18"
    ]
  },
  "59405": {
    "noradId": "59405",
    "tle": [
      "1 59405C 24064H   25284.08520833  .00005182  00000+0  18776-3 0  2843",
      "2 59405  43.0017 180.7432 0001831 262.3360 307.7020 15.27562276    13"
    ]
  },
  "59406": {
    "noradId": "59406",
    "tle": [
      "1 59406C 24064J   25284.08868056  .00003052  00000+0  11059-3 0  2847",
      "2 59406  43.0022 180.7731 0001524 264.0528 303.8778 15.27561920    18"
    ]
  },
  "59407": {
    "noradId": "59407",
    "tle": [
      "1 59407C 24064K   25284.08590278  .00007979  00000+0  28916-3 0  2848",
      "2 59407  43.0011 181.3128 0001467 254.3788  78.9655 15.27553153    13"
    ]
  },
  "59409": {
    "noradId": "59409",
    "tle": [
      "1 59409C 24064M   25284.07965278  .00022809  00000+0  82617-3 0  2842",
      "2 59409  43.0014 170.5837 0001359 262.4829 191.1189 15.27555096    19"
    ]
  },
  "59410": {
    "noradId": "59410",
    "tle": [
      "1 59410C 24064N   25284.08451389  .00007826  00000+0  28360-3 0  2845",
      "2 59410  42.9990 181.0227 0001666 275.0236 170.9189 15.27555581    19"
    ]
  },
  "59411": {
    "noradId": "59411",
    "tle": [
      "1 59411C 24064P   25284.08381944  .00000344  00000+0  12447-4 0  2843",
      "2 59411  42.9999 181.1835 0001518 281.1942  97.2599 15.27563208    14"
    ]
  },
  "59412": {
    "noradId": "59412",
    "tle": [
      "1 59412C 24064Q   25284.08243056  .00011626  00000+0  42128-3 0  2848",
      "2 59412  43.0003 181.2255 0001513 256.1253 100.5365 15.27552230    14"
    ]
  },
  "59413": {
    "noradId": "59413",
    "tle": [
      "1 59413C 24064R   25284.08520833  .00006022  00000+0  21815-3 0  2844",
      "2 59413  43.0017 174.1782 0000971 264.5435 144.5018 15.27569922    17"
    ]
  },
  "59414": {
    "noradId": "59414",
    "tle": [
      "1 59414C 24064S   25284.08243056  .00005035  00000+0  18241-3 0  2846",
      "2 59414  43.0011 174.2257 0001471 284.3904  95.2358 15.27565734    13"
    ]
  },
  "59415": {
    "noradId": "59415",
    "tle": [
      "1 59415C 24064T   25284.08243056 -.00004490  00000+0 -16269-3 0  2841",
      "2 59415  42.9989 180.9827 0001612 262.2324 193.4721 15.27570172    18"
    ]
  },
  "59416": {
    "noradId": "59416",
    "tle": [
      "1 59416C 24064U   25284.08104167 -.00000932  00000+0 -33762-4 0  2846",
      "2 59416  42.9995 180.9062 0001871 263.3390 220.0892 15.27567699    15"
    ]
  },
  "59417": {
    "noradId": "59417",
    "tle": [
      "1 59417C 24064V   25284.08173611  .00025587  00000+0  92677-3 0  2847",
      "2 59417  43.0008 174.1668 0001424 268.0922 143.0499 15.27553084    17"
    ]
  },
  "59418": {
    "noradId": "59418",
    "tle": [
      "1 59418C 24064W   25284.07965278  .00004996  00000+0  18102-3 0  2847",
      "2 59418  42.9994 181.1557 0001586 278.1463  98.5763 15.27560368    17"
    ]
  },
  "59419": {
    "noradId": "59419",
    "tle": [
      "1 59419C 24064X   25284.08173611  .00017753  00000+0  64330-3 0  2840",
      "2 59419  43.0010 181.4907 0001794 278.3676 328.3381 15.27544668    15"
    ]
  },
  "59420": {
    "noradId": "59420",
    "tle": [
      "1 59420C 24064Y   25284.08381944  .00016744  00000+0  60669-3 0  2842",
      "2 59420  43.0009 181.4265 0001361 275.3289   4.0729 15.27549569    18"
    ]
  },
  "59421": {
    "noradId": "59421",
    "tle": [
      "1 59421C 24065A   25284.10604167  .00006369  00000+0  52469-4 0  2844",
      "2 59421  53.1571 111.4175 0000814  88.7859  47.0418 15.69700588    17"
    ]
  },
  "59422": {
    "noradId": "59422",
    "tle": [
      "1 59422C 24065B   25284.10395833  .00009275  00000+0  76405-4 0  2847",
      "2 59422  53.1570 111.2583 0000992  86.4558 120.8003 15.69697986    13"
    ]
  },
  "59423": {
    "noradId": "59423",
    "tle": [
      "1 59423C 24065C   25284.10743056  .00004169  00000+0  34348-4 0  2849",
      "2 59423  53.1571 111.2980 0000938  96.4303 102.7291 15.69700287    12"
    ]
  },
  "59424": {
    "noradId": "59424",
    "tle": [
      "1 59424C 24065D   25284.10256944  .00009166  00000+0  75515-4 0  2848",
      "2 59424  53.1572 111.3783 0000983  85.4339  58.5045 15.69696020    17"
    ]
  },
  "59425": {
    "noradId": "59425",
    "tle": [
      "1 59425C 24065E   25284.10465278  .00006410  00000+0  52820-4 0  2844",
      "2 59425  53.1570 111.1981 0000871  80.3424 158.5928 15.69695604    17"
    ]
  },
  "59426": {
    "noradId": "59426",
    "tle": [
      "1 59426C 24065F   25284.10534722  .00005736  00000+0  47259-4 0  2846",
      "2 59426  53.1569 111.4934 0001168  98.4568   5.7003 15.69699668    17"
    ]
  },
  "59427": {
    "noradId": "59427",
    "tle": [
      "1 59427C 24065G   25284.08034722 -.00000526  00000+0 -17743-4 0  2848",
      "2 59427  53.1578 256.5667 0001294  84.2570 292.4538 15.30188097    13"
    ]
  },
  "59429": {
    "noradId": "59429",
    "tle": [
      "1 59429C 24065J   25284.08520833 -.00015110  00000+0 -50940-3 0  2843",
      "2 59429  53.1607 258.4661 0001472  93.3156  51.9699 15.30198792    11"
    ]
  },
  "59430": {
    "noradId": "59430",
    "tle": [
      "1 59430C 24065K   25284.07826389 -.00017227  00000+0 -58074-3 0  2846",
      "2 59430  53.1600 256.3920 0001358  89.3645   3.1205 15.30200678    11"
    ]
  },
  "59431": {
    "noradId": "59431",
    "tle": [
      "1 59431C 24065L   25284.08451389  .00011555  00000+0  38947-3 0  2845",
      "2 59431  53.1582 256.5025 0001308  88.9077 328.2356 15.30179159    15"
    ]
  },
  "59432": {
    "noradId": "59432",
    "tle": [
      "1 59432C 24065M   25284.08034722 -.00020673  00000+0 -69688-3 0  2843",
      "2 59432  53.1572 256.5991 0001337  88.5643 264.8883 15.30206648    18"
    ]
  },
  "59433": {
    "noradId": "59433",
    "tle": [
      "1 59433C 24065N   25284.08590278  .00001191  00000+0  40139-4 0  2840",
      "2 59433  53.1605 258.4402 0001326  87.7574  72.9847 15.30187959    17"
    ]
  },
  "59434": {
    "noradId": "59434",
    "tle": [
      "1 59434C 24065P   25284.07895833  .00005539  00000+0  18672-3 0  2841",
      "2 59434  53.1603 258.5637 0001360  92.9778 342.9562 15.30181902    15"
    ]
  },
  "59435": {
    "noradId": "59435",
    "tle": [
      "1 59435C 24065Q   25284.07965278 -.00007224  00000+0 -24352-3 0  2840",
      "2 59435  53.1588 256.4897 0001274  92.3304 315.4578 15.30190763    13"
    ]
  },
  "59436": {
    "noradId": "59436",
    "tle": [
      "1 59436C 24065R   25284.07895833 -.00009533  00000+0 -32133-3 0  2841",
      "2 59436  53.1598 256.4231 0001410  89.7411 349.1139 15.30195310    18"
    ]
  },
  "59437": {
    "noradId": "59437",
    "tle": [
      "1 59437C 24065S   25284.08034722 -.00002320  00000+0 -78166-4 0  2849",
      "2 59437  53.1606 258.4832 0001348  89.9494  34.3443 15.30197435    12"
    ]
  },
  "59438": {
    "noradId": "59438",
    "tle": [
      "1 59438C 24065T   25284.08520833 -.00006910  00000+0 -23289-3 0  2847",
      "2 59438  53.1593 256.4284 0001312  87.7155   8.1364 15.30200223    19"
    ]
  },
  "59439": {
    "noradId": "59439",
    "tle": [
      "1 59439C 24065U   25284.08381944 -.00004323  00000+0 -14571-3 0  2846",
      "2 59439  53.1604 256.3309 0001469  87.1646  53.3867 15.30196285    14"
    ]
  }
}